[{"OBJECT_NAME":"MESON-1","OBJECT_ID":"2024-043AK","EPOCH":"2026-03-09T21:36:16.481664","MEAN_MOTION":15.29893494,"ECCENTRICITY":0.00095452,"INCLINATION":97.5469,"RA_OF_ASC_NODE":205.2839,"ARG_OF_PERICENTER":227.1432,"MEAN_ANOMALY":132.9007,"EPHEMERIS_TYPE":0,"CLASSIFICATION_TYPE":"U","NORAD_CAT_ID":59131,"ELEMENT_SET_NO":999,"REV_AT_EPOCH":11189,"BSTAR":0.0002974823,"MEAN_MOTION_DOT":8.544e-5,"MEAN_MOTION_DDOT":0},{"OBJECT_NAME":"STARLINK-31866","OBJECT_ID":"2024-084Q","EPOCH":"2026-03-09T22:03:58.531680","MEAN_MOTION":15.27567508,"ECCENTRICITY":0.00010335,"INCLINATION":42.9986,"RA_OF_ASC_NODE":33.0943,"ARG_OF_PERICENTER":225.7719,"MEAN_ANOMALY":134.3047,"EPHEMERIS_TYPE":0,"CLASSIFICATION_TYPE":"U","NORAD_CAT_ID":59668,"ELEMENT_SET_NO":999,"REV_AT_EPOCH":10449,"BSTAR":4.3681295e-5,"MEAN_MOTION_DOT":9.4e-6,"MEAN_MOTION_DDOT":0}]
